[{"OBJECT_NAME":"STARLINK-35679","OBJECT_ID":"2025-257AE","EPOCH":"2026-03-09T16:28:22.959840","MEAN_MOTION":15.30194471,"ECCENTRICITY":8.862e-5,"INCLINATION":53.1584,"RA_OF_ASC_NODE":216.9791,"ARG_OF_PERICENTER":66.6156,"MEAN_ANOMALY":293.4938,"EPHEMERIS_TYPE":0,"CLASSIFICATION_TYPE":"U","NORAD_CAT_ID":66408,"ELEMENT_SET_NO":999,"REV_AT_EPOCH":1973,"BSTAR":0.0011385542,"MEAN_MOTION_DOT":0.00033508,"MEAN_MOTION_DDOT":0},{"OBJECT_NAME":"OBJECT L","OBJECT_ID":"2024-024L","EPOCH":"2026-03-09T22:36:05.522976","MEAN_MOTION":15.29373491,"ECCENTRICITY":0.00073185,"INCLINATION":97.3169,"RA_OF_ASC_NODE":137.7038,"ARG_OF_PERICENTER":167.6369,"MEAN_ANOMALY":192.5052,"EPHEMERIS_TYPE":0,"CLASSIFICATION_TYPE":"U","NORAD_CAT_ID":58927,"ELEMENT_SET_NO":999,"REV_AT_EPOCH":9318,"BSTAR":0.00043092344,"MEAN_MOTION_DOT":0.00012217,"MEAN_MOTION_DDOT":0}]
